NORAD_CAT_ID,OBJECT_NAME,OBJECT_TYPE,EPOCH,MEAN_MOTION,ECCENTRICITY,INCLINATION,RA_OF_ASC_NODE,ARG_OF_PERICENTER,MEAN_ANOMALY,BSTAR,MEAN_MOTION_DOT,MEAN_MOTION_DDOT,TLE_LINE0,TLE_LINE1,TLE_LINE2,SEMIMAJOR_AXIS,PERIOD,APOGEE,PERIGEE,DECAYED
51898.0,STARLINK-3597,PAYLOAD,2022-05-20 14:00:01,15.49887954,0.0001109,53.2173,119.7529,80.6284,167.4944,-8.9512e-05,-5.528e-05,0.0,0 STARLINK-3597,1 51898U 22022AY  22140.58334491 -.00005528  00000-0 -89512-4 0  9996,2 51898  53.2173 119.7529 0001109  80.6284 167.4944 15.49887954 13523,6795.191,92.91,417.809,416.302,0.0
51898.0,STARLINK-3597,PAYLOAD,2022-05-20 22:00:00,15.499175400000002,0.0001369,53.2162,118.1479,71.0736,237.9566,0.00084914,0.00048094,0.0,0 STARLINK-3597,1 51898U 22022AY  22140.91667824  .00048094  00000-0  84914-3 0  9995,2 51898  53.2162 118.1479 0001369  71.0736 237.9566 15.49917540 13575,6795.104,92.908,417.899,416.039,0.0
51898.0,STARLINK-3597,PAYLOAD,2022-05-21 06:00:00,15.49939796,0.0001495,53.2159,116.5568,62.6995,307.3043,0.00027873,0.00015429,0.0,0 STARLINK-3597,1 51898U 22022AY  22141.25001157  .00015429  00000-0  27873-3 0  9991,2 51898  53.2159 116.5568 0001495  62.6995 307.3043 15.49939796  1302,6795.0390000000025,92.907,417.92,415.888,0.0
51898.0,STARLINK-3597,PAYLOAD,2022-05-21 14:00:01,15.49995543,0.000129,53.2154,114.9627,62.4339,8.6222,-0.0020663,-0.00116452,0.0,0 STARLINK-3597,1 51898U 22022AY  22141.58335648 -.00116452  00000-0 -20663-2 0  9991,2 51898  53.2154 114.9627 0001290  62.4339   8.6222 15.49995543 13673,6794.876,92.903,417.61800000000005,415.865,0.0
51898.0,STARLINK-3597,PAYLOAD,2022-05-21 20:00:01,15.49889722,0.0001095,53.2155,113.7667,69.7673,316.9939,0.0012608,0.00071776,0.0,0 STARLINK-3597,1 51898U 22022AY  22141.83334491  .00071776  00000-0  12608-2 0  9991,2 51898  53.2155 113.7667 0001095  69.7673 316.9939 15.49889722 13715,6795.185,92.91,417.794,416.306,0.0
51898.0,STARLINK-3597,PAYLOAD,2022-05-21 22:00:00,15.49919571,0.0001098,53.2157,113.3686,71.624,60.3636,0.00051278,0.00028794,0.0,0 STARLINK-3597,1 51898U 22022AY  22141.91667824  .00028794  00000-0  51278-3 0  9998,2 51898  53.2157 113.3686 0001098  71.6240  60.3636 15.49919571  1301,6795.098000000001,92.908,417.709,416.217,0.0
51898.0,STARLINK-3597,PAYLOAD,2022-05-22 06:00:00,15.49914857,0.000112,53.2155,111.7775,55.7201,137.2379,-0.00080404,-0.00045866,0.0,0 STARLINK-3597,1 51898U 22022AY  22142.25001157 -.00045866  00000-0 -80404-3 0  9991,2 51898  53.2155 111.7775 0001120  55.7201 137.2379 15.49914857 13781,6795.111999999999,92.908,417.73800000000006,416.216,0.0
51898.0,STARLINK-3597,PAYLOAD,2022-05-22 14:00:01,15.49921431,0.0001032,53.2151,110.1832,60.1719,193.7072,-0.0020555,-0.00115553,0.0,0 STARLINK-3597,1 51898U 22022AY  22142.58334491 -.00115553  00000-0 -20555-2 0  9998,2 51898  53.2151 110.1832 0001032  60.1719 193.7072 15.49921431  1308,6795.093000000003,92.908,417.659,416.256,0.0
51898.0,STARLINK-3597,PAYLOAD,2022-05-22 22:00:01,15.49847572,0.0001093,53.2155,108.5892,73.9693,240.8844,0.00071155,0.00040086,0.0,0 STARLINK-3597,1 51898U 22022AY  22142.91668981  .00040086  00000-0  71155-3 0  9998,2 51898  53.2155 108.5892 0001093  73.9693 240.8844 15.49847572  1303,6795.309,92.912,417.916,416.431,0.0
51898.0,STARLINK-3597,PAYLOAD,2022-05-23 04:00:00,15.49864523,0.0001189,53.2153,107.3962,63.76,206.6892,0.00011777,6.233e-05,0.0,0 STARLINK-3597,1 51898U 22022AY  22143.16667824  .00006233  00000-0  11777-3 0  9991,2 51898  53.2153 107.3962 0001189  63.7600 206.6892 15.49864523 13926,6795.259,92.911,417.932,416.316,0.0
51898.0,STARLINK-3597,PAYLOAD,2022-05-23 14:00:01,15.49892132,0.0001101,53.2161,105.4072,63.456,13.1075,0.00011569,6.121e-05,0.0,0 STARLINK-3597,1 51898U 22022AY  22143.58334491  .00006121  00000-0  11569-3 0  9993,2 51898  53.2161 105.4072 0001101  63.4560  13.1075 15.49892132  1302,6795.178000000001,92.91,417.791,416.295,0.0
51898.0,STARLINK-3597,PAYLOAD,2022-05-23 22:00:01,15.49882255,0.0001106,53.217,103.8176,61.8198,75.7454,-0.0089051,-0.0047623999999999,0.0,0 STARLINK-3597,1 51898U 22022AY  22143.91668981 -.00476240  00000-0 -89051-2 0  9999,2 51898  53.2170 103.8176 0001106  61.8198  75.7454 15.49882255 14048,6795.206999999999,92.91,417.824,416.321,0.0
51898.0,STARLINK-3597,PAYLOAD,2022-05-24 06:00:02,15.49750539,0.0001401,53.2176,102.2332,58.0109,140.2019,-0.013938,-0.00728491,0.0,0 STARLINK-3597,1 51898U 22022AY  22144.25002315 -.00728491  00000-0 -13938-1 0  9998,2 51898  53.2176 102.2332 0001401  58.0109 140.2019 15.49750539 14098,6795.592,92.918,418.409,416.505,0.0
51898.0,STARLINK-3597,PAYLOAD,2022-05-24 12:53:25,15.49584363,0.0003222,53.2169,100.8466,46.2869,313.8407,-0.0011577999999999,-0.00064946,0.0,0 STARLINK-3597,1 51898U 22022AY  22144.53710225 -.00064946  00000-0 -11578-2 0  9992,2 51898  53.2169 100.8466 0003222  46.2869 313.8407 15.49584363 14131,6796.078,92.928,420.133,415.753,0.0
51898.0,STARLINK-3597,PAYLOAD,2022-05-24 22:00:00,15.48724429,0.0001247,53.2178,99.0539,63.295,255.1072,-0.014295,-0.00721053,0.0,0 STARLINK-3597,1 51898U 22022AY  22144.91667824 -.00721053  00000-0 -14295-1 0  9997,2 51898  53.2178  99.0539 0001247  63.2950 255.1072 15.48724429 14185,6798.594,92.98,421.306,419.611,0.0
51898.0,STARLINK-3597,PAYLOAD,2022-05-25 14:00:01,15.47703684,0.0001178,53.2175,95.8813,64.4861,11.7146,-0.014805,-0.00720497,0.0,0 STARLINK-3597,1 51898U 22022AY  22145.58334491 -.00720497  00000-0 -14805-1 0  9990,2 51898  53.2175  95.8813 0001178  64.4861  11.7146 15.47703684  1305,6801.581999999999,93.041,424.249,422.646,0.0
51898.0,STARLINK-3597,PAYLOAD,2022-05-25 22:00:00,15.47127335,0.0001346,53.2171,94.294,68.8803,65.3374,-0.013127,-0.00625098,0.0,0 STARLINK-3597,1 51898U 22022AY  22145.91667824 -.00625098  00000-0 -13127-1 0  9993,2 51898  53.2171  94.2940 0001346  68.8803  65.3374 15.47127335 14345,6803.271,93.076,426.052,424.221,0.0
51898.0,STARLINK-3597,PAYLOAD,2022-05-26 06:00:00,15.46681697,0.0001399,53.2175,92.7146,64.9601,126.5872,-0.015258,-0.00716858,0.0,0 STARLINK-3597,1 51898U 22022AY  22146.25001157 -.00716858  00000-0 -15258-1 0  9994,2 51898  53.2175  92.7146 0001399  64.9601 126.5872 15.46681697 14394,6804.578,93.103,427.395,425.491,0.0
51898.0,STARLINK-3597,PAYLOAD,2022-05-26 14:00:01,15.46175612,0.0001268,53.2175,91.1307,80.7885,167.5127,-0.015681,-0.00723369,0.0,0 STARLINK-3597,1 51898U 22022AY  22146.58334491 -.00723369  00000-0 -15681-1 0  9995,2 51898  53.2175  91.1307 0001268  80.7885 167.5127 15.46175612  1301,6806.063,93.133,428.791,427.065,0.0
51898.0,STARLINK-3597,PAYLOAD,2022-05-26 22:00:00,15.45664572,0.0001240999999999,53.2176,89.5496,71.7031,232.7399,-0.015902,-0.00720909,0.0,0 STARLINK-3597,1 51898U 22022AY  22146.91667824 -.00720909  00000-0 -15902-1 0  9994,2 51898  53.2176  89.5496 0001241  71.7031 232.7399 15.45664572  1309,6807.563,93.164,430.273,428.583,0.0
51898.0,STARLINK-3597,PAYLOAD,2022-05-27 02:53:43,15.45966152,0.0001634,53.216,88.5568,117.7888,242.3286,-0.0073563999999999,-0.00348751,0.0,0 STARLINK-3597,1 51898U 22022AY  22147.12064758 -.00348751  00000-0 -73564-2 0  9995,2 51898  53.2160  88.5568 0001634 117.7888 242.3286 15.45966152 14538,6806.678000000001,93.146,429.655,427.43,0.0
51898.0,STARLINK-3597,PAYLOAD,2022-05-27 14:00:01,15.44643487,0.0001095,53.2175,86.3914,72.26100000000002,342.6269999999999,-0.016438,-0.00719582,0.0,0 STARLINK-3597,1 51898U 22022AY  22147.58334491 -.00719582  00000-0 -16438-1 0  9999,2 51898  53.2175  86.3914 0001095  72.2610 342.6270 15.44643487 14601,6810.563,93.225,433.174,431.682,0.0
51898.0,STARLINK-3597,PAYLOAD,2022-05-27 22:00:01,15.44134246,0.0001238,53.2175,84.8139,69.251,40.0044,-0.0167539999999999,-0.00720687,0.0,0 STARLINK-3597,1 51898U 22022AY  22147.91668981 -.00720687  00000-0 -16754-1 0  9999,2 51898  53.2175  84.8139 0001238  69.2510  40.0044 15.44134246  1306,6812.06,93.256,434.768,433.082,0.0
51898.0,STARLINK-3597,PAYLOAD,2022-05-28 13:04:04,15.43770955,0.0002507,53.2173,81.8218,84.9215,275.2078,-0.0077536999999999,-0.00341358,0.0,0 STARLINK-3597,1 51898U 22022AY  22148.54449899 -.00341358  00000-0 -77537-2 0  9995,2 51898  53.2173  81.8218 0002507  84.9215 275.2078 15.43770955 14759,6813.129,93.278,436.702,433.286,0.0
51898.0,STARLINK-3597,PAYLOAD,2022-05-28 14:00:01,15.43095663,0.0001309,53.2175,81.6616,66.1867,149.7811,-0.0166389999999999,-0.0069303,0.0,0 STARLINK-3597,1 51898U 22022AY  22148.58334491 -.00693030  00000-0 -16639-1 0  9992,2 51898  53.2175  81.6616 0001309  66.1867 149.7811 15.43095663 14751,6815.116,93.319,437.87300000000016,436.089,0.0
51898.0,STARLINK-3597,PAYLOAD,2022-05-28 22:00:00,15.42603638,0.0001349,53.2176,80.0892,69.0339,199.3898,-0.0176039999999999,-0.00719045,0.0,0 STARLINK-3597,1 51898U 22022AY  22148.91667824 -.00719045  00000-0 -17604-1 0  9996,2 51898  53.2176  80.0892 0001349  69.0339 199.3898 15.42603638  1300,6816.565,93.349,439.35,437.511,0.0
51898.0,STARLINK-3597,PAYLOAD,2022-05-29 06:00:02,15.42091804,0.0001248,53.2176,78.5181,66.4575,253.8821,-0.017823,-0.00715779,0.0,0 STARLINK-3597,1 51898U 22022AY  22149.25002315 -.00715779  00000-0 -17823-1 0  9995,2 51898  53.2176  78.5181 0001248  66.4575 253.8821 15.42091804 14856,6818.074000000001,93.38,440.79,439.088,0.0
51898.0,STARLINK-3597,PAYLOAD,2022-05-29 14:00:01,15.415833,0.0001121,53.2176,76.9451,71.6156,299.8996,-0.01821,-0.00718681,0.0,0 STARLINK-3597,1 51898U 22022AY  22149.58334491 -.00718681  00000-0 -18210-1 0  9990,2 51898  53.2176  76.9451 0001121  71.6156 299.8996 15.41583300  1306,6819.573,93.41,442.202,440.673,0.0
51898.0,STARLINK-3597,PAYLOAD,2022-05-29 22:00:00,15.41075275,0.0001223,53.2177,75.3757,62.2333,359.9072,-0.01861,-0.0072184,0.0,0 STARLINK-3597,1 51898U 22022AY  22149.91667824 -.00721840  00000-0 -18610-1 0  9991,2 51898  53.2177  75.3757 0001223  62.2333 359.9072 15.41075275  1305,6821.071999999999,93.441,443.771,442.102,0.0
